[{"OBJECT_NAME":"PHISAT 2","OBJECT_ID":"2024-149C","EPOCH":"2026-03-09T18:55:12.732384","MEAN_MOTION":15.29548632,"ECCENTRICITY":0.00011753,"INCLINATION":97.3806,"RA_OF_ASC_NODE":148.6498,"ARG_OF_PERICENTER":168.623,"MEAN_ANOMALY":191.5037,"EPHEMERIS_TYPE":0,"CLASSIFICATION_TYPE":"U","NORAD_CAT_ID":60470,"ELEMENT_SET_NO":999,"REV_AT_EPOCH":8679,"BSTAR":0.00031420974,"MEAN_MOTION_DOT":8.925e-5,"MEAN_MOTION_DDOT":0},{"OBJECT_NAME":"STARLINK-36488","OBJECT_ID":"2026-002B","EPOCH":"2026-03-09T09:57:58.025952","MEAN_MOTION":15.27575874,"ECCENTRICITY":4.33e-5,"INCLINATION":43.0006,"RA_OF_ASC_NODE":327.1045,"ARG_OF_PERICENTER":359.2069,"MEAN_ANOMALY":0.8782,"EPHEMERIS_TYPE":0,"CLASSIFICATION_TYPE":"U","NORAD_CAT_ID":67306,"ELEMENT_SET_NO":999,"REV_AT_EPOCH":1103,"BSTAR":0.0013290569,"MEAN_MOTION_DOT":0.00036487,"MEAN_MOTION_DDOT":0}]
